M2 PATHFINDER           
1 45727U 20037E   26195.84319160  .00000677  00000+0  52469-4 0  9991
2 45727  97.8143  27.3878 0012956  63.5787 296.6767 15.04790838329656
NETSAT-4                
1 46504U 20068U   26195.59804001  .00010344  00000+0  22334-3 0  9993
2 46504  97.8600 206.0597 0004668 195.4241 164.6865 15.44743237320001
NETSAT-3                
1 46505U 20068V   26195.49533384  .00011033  00000+0  24748-3 0  9993
2 46505  97.8647 204.1323 0003710 214.3579 145.7428 15.43592804319892
NETSAT-1                
1 46506U 20068W   26195.90645543  .00007125  00000+0  21086-3 0  9990
2 46506  97.8750 198.5740 0002438 264.1778  95.9186 15.35241490319550
NETSAT-2                
1 46507U 20068X   26195.59785208  .00013811  00000+0  27406-3 0  9990
2 46507  97.8610 206.0596 0002068 210.5632 149.5496 15.47145745319978
GREENCUBE (IO-117)      
1 53109U 22080E   26195.26503440 -.00000003  00000+0  00000+0 0  9999
2 53109  70.1411 288.8296 0009054 283.5288  76.4363  6.42583348 93803
SITRO-AIS 5 (KATYS)     
1 57176U 23091L   26195.93518710  .00006775  00000+0  23517-3 0  9993
2 57176  97.5049 260.1080 0010697  13.4676 346.6848 15.30061289168581
SITRO-AIS 6 (CHIRKIN)   
1 57192U 23091AC  26195.91353703  .00005595  00000+0  21732-3 0  9994
2 57192  97.5056 259.0558 0011194  17.5997 342.5627 15.26434416168512
SITRO-AIS 8 (ANOKHIN)   
1 57193U 23091AD  26195.96796475  .00008091  00000+0  25717-3 0  9998
2 57193  97.5045 261.8452 0009544   8.9304 351.2106 15.32853948168709
SITRO-AIS 7 (FARTUSHNIY)
1 57194U 23091AE  26195.92247073  .00005455  00000+0  21401-3 0  9997
2 57194  97.5052 258.8752 0011170  18.8766 341.2884 15.26108481168505
SITRO-AIS 10 (BURDAEV)  
1 57199U 23091AK  26195.94505525  .00011828  00000+0  30212-3 0  9994
2 57199  97.5072 267.1691 0004874 342.5343  17.5734 15.39621782169032
SITRO-AIS 9 (SHCHUKIN)  
1 57201U 23091AM  26195.91549353  .00011219  00000+0  29155-3 0  9990
2 57201  97.5071 266.8465 0005140 342.8009  17.3061 15.39106473169013
SITRO-AIS 12 (SMIRENNIY)
1 57204U 23091AQ  26195.90083256  .00011663  00000+0  30009-3 0  9990
2 57204  97.5084 267.3162 0004716 335.3897  24.7122 15.39402381169039
SITRO-AIS 11 (SHEFFER)  
1 57208U 23091AU  26195.90643589  .00011516  00000+0  29211-3 0  9995
2 57208  97.5082 267.5863 0004595 334.9570  25.1452 15.39845247169054
SITRO-AIS 25            
1 59066U 24039R   26195.97879427  .00001872  00000+0  14780-3 0  9990
2 59066  95.3893 254.1903 0142766 230.2830 128.5742 14.93641808128872
SITRO-AIS 26            
1 59067U 24039S   26195.98399620  .00001816  00000+0  14417-3 0  9999
2 59067  95.3893 254.0857 0143101 230.8873 127.9559 14.93433960128863
SITRO-AIS 27            
1 59068U 24039T   26195.94640280  .00001311  00000+0  10392-3 0  9995
2 59068  95.3898 254.3446 0142154 229.5391 129.3371 14.93857748128887
SITRO-AIS 28            
1 59071U 24039U   26195.99021249  .00001811  00000+0  14241-3 0  9994
2 59071  95.3896 254.4235 0142064 229.2276 129.6552 14.93892488128890
GRBBETA                 
1 60237U 24128C   26195.96040188  .00001804  00000+0  13337-3 0  9996
2 60237  61.9898 118.8109 0037077 140.6013 219.7787 15.06807988110452
OOV-CUBE (TUBSAT-30)    
1 60240U 24128F   26195.93437452  .00001000  00000+0  88744-4 0  9994
2 60240  61.9937 128.8119 0041150 139.9760 220.4377 15.02873276110283
ROBUSTA-3A (MEDITERRAN*)
1 60243U 24128J   26195.91393776  .00004203  00000+0  25256-3 0  9991
2 60243  61.9866 110.1701 0038170 133.8042 226.6221 15.11985140110619
LASARSAT                
1 62391U 24247Q   26195.93235013  .00021592  00000+0  40881-3 0  9991
2 62391  44.9739 106.1046 0007354 164.5391 195.5725 15.48033197 87612
CROCUBE                 
1 62394U 24247T   26195.44298929  .00025737  00000+0  45084-3 0  9990
2 62394  44.9723 105.7215 0007458 167.1731 192.9351 15.50156590 87570
FORESAIL-1 PRIME        
1 66778U 25276DS  26195.73308698  .00002563  00000+0  12593-3 0  9991
2 66778  97.4193 268.5019 0002909  45.5776 314.5696 15.18936030 34584
KNACKSAT-2              
1 67683U 98067XZ  26195.36323014  .00036699  00000+0  41017-3 0  9993
2 67683  51.6267 157.5314 0008024 324.9954  35.0511 15.62347754 24527
