OBJECT_NAME,OBJECT_ID,EPOCH,MEAN_MOTION,ECCENTRICITY,INCLINATION,RA_OF_ASC_NODE,ARG_OF_PERICENTER,MEAN_ANOMALY,EPHEMERIS_TYPE,CLASSIFICATION_TYPE,NORAD_CAT_ID,ELEMENT_SET_NO,REV_AT_EPOCH,BSTAR,MEAN_MOTION_DOT,MEAN_MOTION_DDOT
M2 PATHFINDER,2020-037E,2026-07-14T20:14:11.754240,15.04790838,.00129561,97.8143,27.3878,63.5787,296.6767,0,U,45727,999,32965,.52468708E-4,.677E-5,0
NETSAT-4,2020-068U,2026-07-14T14:21:10.656864,15.44743237,.0004668,97.8600,206.0597,195.4241,164.6865,0,U,46504,999,32000,.22334E-3,.10344E-3,0
NETSAT-3,2020-068V,2026-07-14T11:53:16.843776,15.43592804,.00037103,97.8647,204.1323,214.3579,145.7428,0,U,46505,999,31989,.24748186E-3,.11033E-3,0
NETSAT-1,2020-068W,2026-07-14T21:45:17.749152,15.35241490,.00024385,97.8750,198.5740,264.1778,95.9186,0,U,46506,999,31955,.21086114E-3,.7125E-4,0
NETSAT-2,2020-068X,2026-07-14T14:20:54.419712,15.47145745,.0002068,97.8610,206.0596,210.5632,149.5496,0,U,46507,999,31997,.27406E-3,.13811E-3,0
GREENCUBE (IO-117),2022-080E,2026-07-14T06:21:38.972160,6.42583348,.00090541,70.1411,288.8296,283.5288,76.4363,0,U,53109,999,9380,0,-.3E-7,0
SITRO-AIS 5 (KATYS),2023-091L,2026-07-14T22:26:40.165440,15.30061289,.00106976,97.5049,260.1080,13.4676,346.6848,0,U,57176,999,16858,.23516534E-3,.6775E-4,0
SITRO-AIS 6 (CHIRKIN),2023-091AC,2026-07-14T21:55:29.599392,15.26434416,.00111947,97.5056,259.0558,17.5997,342.5627,0,U,57192,999,16851,.2173164E-3,.5595E-4,0
SITRO-AIS 8 (ANOKHIN),2023-091AD,2026-07-14T23:13:52.154400,15.32853948,.00095448,97.5045,261.8452,8.9304,351.2106,0,U,57193,999,16870,.25717177E-3,.8091E-4,0
SITRO-AIS 7 (FARTUSHNIY),2023-091AE,2026-07-14T22:08:21.471072,15.26108481,.00111709,97.5052,258.8752,18.8766,341.2884,0,U,57194,999,16850,.21401346E-3,.5455E-4,0
SITRO-AIS 10 (BURDAEV),2023-091AK,2026-07-14T22:40:52.773600,15.39621782,.00048743,97.5072,267.1691,342.5343,17.5734,0,U,57199,999,16903,.30211729E-3,.11828E-3,0
SITRO-AIS 9 (SHCHUKIN),2023-091AM,2026-07-14T21:58:18.640992,15.39106473,.00051401,97.5071,266.8465,342.8009,17.3061,0,U,57201,999,16901,.29155222E-3,.11219E-3,0
SITRO-AIS 12 (SMIRENNIY),2023-091AQ,2026-07-14T21:37:11.933184,15.39402381,.00047166,97.5084,267.3162,335.3897,24.7122,0,U,57204,999,16903,.30009404E-3,.11663E-3,0
SITRO-AIS 11 (SHEFFER),2023-091AU,2026-07-14T21:45:16.060896,15.39845247,.00045957,97.5082,267.5863,334.9570,25.1452,0,U,57208,999,16905,.29210501E-3,.11516E-3,0
SITRO-AIS 25,2024-039R,2026-07-14T23:29:27.824928,14.93641808,.01427665,95.3893,254.1903,230.2830,128.5742,0,U,59066,999,12887,.14779978E-3,.1872E-4,0
SITRO-AIS 26,2024-039S,2026-07-14T23:36:57.271680,14.93433960,.01431011,95.3893,254.0857,230.8873,127.9559,0,U,59067,999,12886,.14416865E-3,.1816E-4,0
SITRO-AIS 27,2024-039T,2026-07-14T22:42:49.201920,14.93857748,.01421545,95.3898,254.3446,229.5391,129.3371,0,U,59068,999,12888,.10391906E-3,.1311E-4,0
SITRO-AIS 28,2024-039U,2026-07-14T23:45:54.359136,14.93892488,.01420646,95.3896,254.4235,229.2276,129.6552,0,U,59071,999,12889,.142407E-3,.1811E-4,0
GRBBETA,2024-128C,2026-07-14T23:02:58.722432,15.06807988,.00370778,61.9898,118.8109,140.6013,219.7787,0,U,60237,999,11045,.13337473E-3,.1804E-4,0
OOV-CUBE (TUBSAT-30),2024-128F,2026-07-14T22:25:29.958528,15.02873276,.004115,61.9937,128.8119,139.9760,220.4377,0,U,60240,999,11028,.88744455E-4,.1E-4,0
ROBUSTA-3A (MEDITERRANEE),2024-128J,2026-07-14T21:56:04.222464,15.11985140,.003817,61.9866,110.1701,133.8042,226.6221,0,U,60243,999,11061,.25255902E-3,.4203E-4,0
LASARSAT,2024-247Q,2026-07-14T22:22:35.051232,15.48033197,.0007354,44.9739,106.1046,164.5391,195.5725,0,U,62391,999,8761,.40881166E-3,.21592E-3,0
CROCUBE,2024-247T,2026-07-14T10:37:54.274656,15.50156590,.00074582,44.9723,105.7215,167.1731,192.9351,0,U,62394,999,8757,.45083664E-3,.25737E-3,0
FORESAIL-1 PRIME,2025-276DS,2026-07-14T17:35:38.715072,15.18936030,.00029096,97.4193,268.5019,45.5776,314.5696,0,U,66778,999,3458,.12593423E-3,.2563E-4,0
KNACKSAT-2,1998-067XZ,2026-07-14T08:43:03.084096,15.62347754,.00080246,51.6267,157.5314,324.9954,35.0511,0,U,67683,999,2452,.41016626E-3,.36699E-3,0
